CZ-2C R/B               
1 54039U 22132E   26033.93170425  .00040868  00000+0  52464-3 0  9995
2 54039  97.2948  36.2802 0017363 212.0843 147.9359 15.58838696184957
GSLV R/B                
1 54149U 22138AN  26033.68524024  .00003659  00000+0  31867-3 0  9994
2 54149  87.3859 178.0762 0019347 280.0014  79.9034 14.96499105178696
XRISM                   
1 57800U 23137A   26033.70178076  .00006894  00000+0  39633-3 0  9999
2 57800  31.0018 149.8841 0008018  48.8852 311.2478 15.11046189132493
ACS3                    
1 59588U 24077B   26033.48458483  .00016985  00000+0  14114-1 0  9993
2 59588  97.2263 342.5097 0045601 189.6235 170.4059 13.88119696 89315
SZ-21 MODULE            
1 66515U 25246C   26034.08880483  .00032260  00000+0  30952-3 0  9990
2 66515  41.4757  55.9274 0003288 269.9133  90.1331 15.65925225 12641
