CCSDS_OMM_VERS = 2.0
CREATION_DATE  = 
ORIGINATOR     = 

OBJECT_NAME    = CZ-2C R/B
OBJECT_ID      = 2022-132E
CENTER_NAME    = EARTH
REF_FRAME      = TEME
TIME_SYSTEM    = UTC
MEAN_ELEMENT_THEORY = SGP/SGP4

EPOCH          = 2026-02-02T22:21:39.247200
MEAN_MOTION    = 15.58838696
ECCENTRICITY   = .00173636
INCLINATION    = 97.2948
RA_OF_ASC_NODE = 36.2802
ARG_OF_PERICENTER = 212.0843
MEAN_ANOMALY   = 147.9359

EPHEMERIS_TYPE = 0
CLASSIFICATION_TYPE = U
NORAD_CAT_ID   = 54039
ELEMENT_SET_NO = 999
REV_AT_EPOCH   = 18495
BSTAR          = .52463938E-3
MEAN_MOTION_DOT = .40868E-3
MEAN_MOTION_DDOT = 0

CCSDS_OMM_VERS = 2.0
CREATION_DATE  = 
ORIGINATOR     = 

OBJECT_NAME    = GSLV R/B
OBJECT_ID      = 2022-138AN
CENTER_NAME    = EARTH
REF_FRAME      = TEME
TIME_SYSTEM    = UTC
MEAN_ELEMENT_THEORY = SGP/SGP4

EPOCH          = 2026-02-02T16:26:44.756736
MEAN_MOTION    = 14.96499105
ECCENTRICITY   = .00193476
INCLINATION    = 87.3859
RA_OF_ASC_NODE = 178.0762
ARG_OF_PERICENTER = 280.0014
MEAN_ANOMALY   = 79.9034

EPHEMERIS_TYPE = 0
CLASSIFICATION_TYPE = U
NORAD_CAT_ID   = 54149
ELEMENT_SET_NO = 999
REV_AT_EPOCH   = 17869
BSTAR          = .31867026E-3
MEAN_MOTION_DOT = .3659E-4
MEAN_MOTION_DDOT = 0

CCSDS_OMM_VERS = 2.0
CREATION_DATE  = 
ORIGINATOR     = 

OBJECT_NAME    = XRISM
OBJECT_ID      = 2023-137A
CENTER_NAME    = EARTH
REF_FRAME      = TEME
TIME_SYSTEM    = UTC
MEAN_ELEMENT_THEORY = SGP/SGP4

EPOCH          = 2026-02-02T16:50:33.857664
MEAN_MOTION    = 15.11046189
ECCENTRICITY   = .00080186
INCLINATION    = 31.0018
RA_OF_ASC_NODE = 149.8841
ARG_OF_PERICENTER = 48.8852
MEAN_ANOMALY   = 311.2478

EPHEMERIS_TYPE = 0
CLASSIFICATION_TYPE = U
NORAD_CAT_ID   = 57800
ELEMENT_SET_NO = 999
REV_AT_EPOCH   = 13249
BSTAR          = .39632899E-3
MEAN_MOTION_DOT = .6894E-4
MEAN_MOTION_DDOT = 0

CCSDS_OMM_VERS = 2.0
CREATION_DATE  = 
ORIGINATOR     = 

OBJECT_NAME    = ACS3
OBJECT_ID      = 2024-077B
CENTER_NAME    = EARTH
REF_FRAME      = TEME
TIME_SYSTEM    = UTC
MEAN_ELEMENT_THEORY = SGP/SGP4

EPOCH          = 2026-02-02T11:37:48.129312
MEAN_MOTION    = 13.88119696
ECCENTRICITY   = .00456012
INCLINATION    = 97.2263
RA_OF_ASC_NODE = 342.5097
ARG_OF_PERICENTER = 189.6235
MEAN_ANOMALY   = 170.4059

EPHEMERIS_TYPE = 0
CLASSIFICATION_TYPE = U
NORAD_CAT_ID   = 59588
ELEMENT_SET_NO = 999
REV_AT_EPOCH   = 8931
BSTAR          = .14113614E-1
MEAN_MOTION_DOT = .16985E-3
MEAN_MOTION_DDOT = 0

CCSDS_OMM_VERS = 2.0
CREATION_DATE  = 
ORIGINATOR     = 

OBJECT_NAME    = SZ-21 MODULE
OBJECT_ID      = 2025-246C
CENTER_NAME    = EARTH
REF_FRAME      = TEME
TIME_SYSTEM    = UTC
MEAN_ELEMENT_THEORY = SGP/SGP4

EPOCH          = 2026-02-03T02:07:52.737312
MEAN_MOTION    = 15.65925225
ECCENTRICITY   = .00032884
INCLINATION    = 41.4757
RA_OF_ASC_NODE = 55.9274
ARG_OF_PERICENTER = 269.9133
MEAN_ANOMALY   = 90.1331

EPHEMERIS_TYPE = 0
CLASSIFICATION_TYPE = U
NORAD_CAT_ID   = 66515
ELEMENT_SET_NO = 999
REV_AT_EPOCH   = 1264
BSTAR          = .30952098E-3
MEAN_MOTION_DOT = .3226E-3
MEAN_MOTION_DDOT = 0

